[Satellite]
VERSION=1.1
NAME=H-2A R/B
NICKNAME=H-2A R/B
TLE1=1 27601U 02056E   19316.73717031  .00000037  00000-0  28393-4 0  9997
TLE2=2 27601  98.2575 358.3672 0071723 204.9862 288.8000 14.31917114883534
STATUS=0
